{
  "type": "FeatureCollection",
  "features": [
    {
      "type": "Feature",
      "properties": {
        "norad_id": 32113,
        "name": "FENGYUN 1C DEB",
        "group": "fengyun-1c-debris",
        "lat": -37.85614444856348,
        "lon": 34.36873896112623,
        "alt_km": 977.8832364191348,
        "timestamp": "2025-12-18T14:52:08.311129+00:00",
        "meta_object_name": "FENGYUN 1C DEB",
        "meta_object_id": "1999-025CRF",
        "meta_epoch": "2025-12-14T19:47:44.837664",
        "meta_mean_motion": 13.94564965,
        "meta_eccentricity": 0.02380847,
        "meta_inclination": 99.0277,
        "meta_ra_of_asc_node": 23.5568,
        "meta_arg_of_pericenter": 220.9453,
        "meta_mean_anomaly": 137.3616,
        "meta_ephemeris_type": 0,
        "meta_classification_type": "U",
        "meta_norad_cat_id": 32113,
        "meta_element_set_no": 999,
        "meta_rev_at_epoch": 62915,
        "meta_bstar": 0.0009179447,
        "meta_mean_motion_dot": 1.508e-05,
        "meta_mean_motion_ddot": 0,
        "tle_line1": "1 32113U 99025CRF 25348.82482451  .00001508  00000+0  91794-3 0  9997",
        "tle_line2": "2 32113  99.0277  23.5568 0238084 220.9453 137.3616 13.94564965629157"
      },
      "geometry": {
        "type": "Point",
        "coordinates": [
          34.36873896112623,
          -37.85614444856348
        ]
      }
    },
    {
      "type": "Feature",
      "properties": {
        "norad_id": 32114,
        "name": "FENGYUN 1C DEB",
        "group": "fengyun-1c-debris",
        "lat": 25.39943409419764,
        "lon": 106.23500019176473,
        "alt_km": 621.2010401748303,
        "timestamp": "2025-12-18T14:52:08.311140+00:00",
        "meta_object_name": "FENGYUN 1C DEB",
        "meta_object_id": "1999-025CRG",
        "meta_epoch": "2025-12-06T13:19:21.641376",
        "meta_mean_motion": 14.76489439,
        "meta_eccentricity": 0.00447682,
        "meta_inclination": 99.9287,
        "meta_ra_of_asc_node": 96.1919,
        "meta_arg_of_pericenter": 3.5911,
        "meta_mean_anomaly": 356.5605,
        "meta_ephemeris_type": 0,
        "meta_classification_type": "U",
        "meta_norad_cat_id": 32114,
        "meta_element_set_no": 999,
        "meta_rev_at_epoch": 65638,
        "meta_bstar": 0.0040574802,
        "meta_mean_motion_dot": 0.0002877,
        "meta_mean_motion_ddot": 0,
        "tle_line1": "1 32114U 99025CRG 25340.55511159  .00028770  00000+0  40575-2 0  9998",
        "tle_line2": "2 32114  99.9287  96.1919 0044768   3.5911 356.5605 14.76489439656383"
      },
      "geometry": {
        "type": "Point",
        "coordinates": [
          106.23500019176473,
          25.39943409419764
        ]
      }
    },
    {
      "type": "Feature",
      "properties": {
        "norad_id": 32117,
        "name": "FENGYUN 1C DEB",
        "group": "fengyun-1c-debris",
        "lat": 15.852583890874394,
        "lon": -139.69386347123626,
        "alt_km": 812.3069560820322,
        "timestamp": "2025-12-18T14:52:08.311150+00:00",
        "meta_object_name": "FENGYUN 1C DEB",
        "meta_object_id": "1999-025CRK",
        "meta_epoch": "2025-12-18T02:18:00.201024",
        "meta_mean_motion": 14.23964713,
        "meta_eccentricity": 0.00265666,
        "meta_inclination": 98.6134,
        "meta_ra_of_asc_node": 37.3263,
        "meta_arg_of_pericenter": 76.1616,
        "meta_mean_anomaly": 284.2516,
        "meta_ephemeris_type": 0,
        "meta_classification_type": "U",
        "meta_norad_cat_id": 32117,
        "meta_element_set_no": 999,
        "meta_rev_at_epoch": 94873,
        "meta_bstar": 0.00078657764,
        "meta_mean_motion_dot": 1.768e-05,
        "meta_mean_motion_ddot": 0,
        "tle_line1": "1 32117U 99025CRK 25352.09583566  .00001768  00000+0  78658-3 0  9996",
        "tle_line2": "2 32117  98.6134  37.3263 0026566  76.1616 284.2516 14.23964713948732"
      },
      "geometry": {
        "type": "Point",
        "coordinates": [
          -139.69386347123626,
          15.852583890874394
        ]
      }
    },
    {
      "type": "Feature",
      "properties": {
        "norad_id": 32119,
        "name": "FENGYUN 1C DEB",
        "group": "fengyun-1c-debris",
        "lat": 74.26896594063103,
        "lon": 73.88590614993521,
        "alt_km": 850.7175389300028,
        "timestamp": "2025-12-18T14:52:08.311161+00:00",
        "meta_object_name": "FENGYUN 1C DEB",
        "meta_object_id": "1999-025CRM",
        "meta_epoch": "2025-12-17T21:16:22.918368",
        "meta_mean_motion": 14.02832711,
        "meta_eccentricity": 0.008595,
        "meta_inclination": 99.8868,
        "meta_ra_of_asc_node": 214.8358,
        "meta_arg_of_pericenter": 38.5368,
        "meta_mean_anomaly": 322.189,
        "meta_ephemeris_type": 0,
        "meta_classification_type": "U",
        "meta_norad_cat_id": 32119,
        "meta_element_set_no": 999,
        "meta_rev_at_epoch": 93800,
        "meta_bstar": 0.00060078773,
        "meta_mean_motion_dot": 9.1e-06,
        "meta_mean_motion_ddot": 0,
        "tle_line1": "1 32119U 99025CRM 25351.88637637  .00000910  00000+0  60079-3 0  9999",
        "tle_line2": "2 32119  99.8868 214.8358 0085950  38.5368 322.1890 14.02832711938001"
      },
      "geometry": {
        "type": "Point",
        "coordinates": [
          73.88590614993521,
          74.26896594063103
        ]
      }
    },
    {
      "type": "Feature",
      "properties": {
        "norad_id": 32123,
        "name": "FENGYUN 1C DEB",
        "group": "fengyun-1c-debris",
        "lat": 8.545264383844552,
        "lon": -17.738858968100875,
        "alt_km": 715.5345725468969,
        "timestamp": "2025-12-18T14:52:08.311171+00:00",
        "meta_object_name": "FENGYUN 1C DEB",
        "meta_object_id": "1999-025CRR",
        "meta_epoch": "2025-12-17T10:15:54.659808",
        "meta_mean_motion": 14.61477393,
        "meta_eccentricity": 0.01595262,
        "meta_inclination": 98.9404,
        "meta_ra_of_asc_node": 159.6179,
        "meta_arg_of_pericenter": 278.7629,
        "meta_mean_anomaly": 107.3204,
        "meta_ephemeris_type": 0,
        "meta_classification_type": "U",
        "meta_norad_cat_id": 32123,
        "meta_element_set_no": 999,
        "meta_rev_at_epoch": 71443,
        "meta_bstar": 0.00024209771,
        "meta_mean_motion_dot": 1.37e-05,
        "meta_mean_motion_ddot": 0,
        "tle_line1": "1 32123U 99025CRR 25351.42771597  .00001370  00000+0  24210-3 0  9996",
        "tle_line2": "2 32123  98.9404 159.6179 0159526 278.7629 107.3204 14.61477393714435"
      },
      "geometry": {
        "type": "Point",
        "coordinates": [
          -17.738858968100875,
          8.545264383844552
        ]
      }
    },
    {
      "type": "Feature",
      "properties": {
        "norad_id": 32125,
        "name": "FENGYUN 1C DEB",
        "group": "fengyun-1c-debris",
        "lat": 42.150232342472194,
        "lon": 161.91648297508658,
        "alt_km": 776.7750502263871,
        "timestamp": "2025-12-18T14:52:08.311182+00:00",
        "meta_object_name": "FENGYUN 1C DEB",
        "meta_object_id": "1999-025CRT",
        "meta_epoch": "2025-12-14T04:03:21.187008",
        "meta_mean_motion": 14.69917548,
        "meta_eccentricity": 0.0174033,
        "meta_inclination": 99.062,
        "meta_ra_of_asc_node": 328.6692,
        "meta_arg_of_pericenter": 318.7989,
        "meta_mean_anomaly": 40.0184,
        "meta_ephemeris_type": 0,
        "meta_classification_type": "U",
        "meta_norad_cat_id": 32125,
        "meta_element_set_no": 999,
        "meta_rev_at_epoch": 70544,
        "meta_bstar": 0.002785531,
        "meta_mean_motion_dot": 0.00021057,
        "meta_mean_motion_ddot": 0,
        "tle_line1": "1 32125U 99025CRT 25348.16899522  .00021057  00000+0  27855-2 0  9995",
        "tle_line2": "2 32125  99.0620 328.6692 0174033 318.7989  40.0184 14.69917548705441"
      },
      "geometry": {
        "type": "Point",
        "coordinates": [
          161.91648297508658,
          42.150232342472194
        ]
      }
    },
    {
      "type": "Feature",
      "properties": {
        "norad_id": 32126,
        "name": "FENGYUN 1C DEB",
        "group": "fengyun-1c-debris",
        "lat": 36.59716355245094,
        "lon": -138.58494511364916,
        "alt_km": 1235.2925775236,
        "timestamp": "2025-12-18T14:52:08.311192+00:00",
        "meta_object_name": "FENGYUN 1C DEB",
        "meta_object_id": "1999-025CRU",
        "meta_epoch": "2025-12-14T22:11:18.681792",
        "meta_mean_motion": 13.56802944,
        "meta_eccentricity": 0.02807648,
        "meta_inclination": 99.1097,
        "meta_ra_of_asc_node": 224.8335,
        "meta_arg_of_pericenter": 249.9124,
        "meta_mean_anomaly": 107.16,
        "meta_ephemeris_type": 0,
        "meta_classification_type": "U",
        "meta_norad_cat_id": 32126,
        "meta_element_set_no": 999,
        "meta_rev_at_epoch": 61744,
        "meta_bstar": 0.001056147,
        "meta_mean_motion_dot": 9.24e-06,
        "meta_mean_motion_ddot": 0,
        "tle_line1": "1 32126U 99025CRU 25348.92452178  .00000924  00000+0  10561-2 0  9998",
        "tle_line2": "2 32126  99.1097 224.8335 0280764 249.9124 107.1600 13.56802944617445"
      },
      "geometry": {
        "type": "Point",
        "coordinates": [
          -138.58494511364916,
          36.59716355245094
        ]
      }
    }
  ]
}